[
    {
        "Altitude(m)": 611965.2092043752,
        "Argument of Periapsis(deg)": 0.0,
        "Eccentricity": 0.0,
        "Inclination(deg)": 60.0,
        "Latitude(deg)": 59.140233855000886,
        "Longitude(deg)": 18.96963195798015,
        "Mean Anomaly(deg)": 81.8182,
        "RAAN(deg)": 45.0,
        "Satellite Name": "Test1 203",
        "Satellite Number": 203,
        "Semi-Major Axis(m)": 6980739.136638005,
        "Time(s)": 0
    },
    {
        "Altitude(m)": 611995.8353659082,
        "Argument of Periapsis(deg)": 0.00010418945913296404,
        "Eccentricity": 0.0,
        "Inclination(deg)": 60.0,
        "Latitude(deg)": 59.283336029304,
        "Longitude(deg)": 20.10299551322418,
        "Mean Anomaly(deg)": 82.43830614546185,
        "RAAN(deg)": 44.99957995086026,
        "Satellite Name": "Test1 203",
        "Satellite Number": 203,
        "Semi-Major Axis(m)": 6980739.136638005,
        "Time(s)": 10
    }
]